OBJECT_NAME,OBJECT_ID,EPOCH,MEAN_MOTION,ECCENTRICITY,INCLINATION,RA_OF_ASC_NODE,ARG_OF_PERICENTER,MEAN_ANOMALY,EPHEMERIS_TYPE,CLASSIFICATION_TYPE,NORAD_CAT_ID,ELEMENT_SET_NO,REV_AT_EPOCH,BSTAR,MEAN_MOTION_DOT,MEAN_MOTION_DDOT
STARLINK-36528,2026-008P,2026-06-01T05:36:33.184224,15.27566273,.00013181,43.0031,93.0173,274.4678,85.6023,0,U,67458,999,2235,.1015909E-2,.27787E-3,0
STARLINK-36546,2026-008Q,2026-06-03T02:56:12.092352,15.27578032,.00022333,43.0042,83.1269,329.2066,30.8654,0,U,67459,999,2263,.91925686E-3,.25119E-3,0
STARLINK-36523,2026-008R,2026-06-01T05:16:25.320864,15.27604377,.00009524,43.0023,93.7879,268.1459,91.9283,0,U,67460,999,2234,.69847358E-3,.19022E-3,0
STARLINK-36522,2026-008S,2026-06-01T04:44:56.323104,15.27595867,.00016785,43.0027,93.6226,271.1793,88.8866,0,U,67461,999,2234,.11103275E-2,.30433E-3,0
STARLINK-36504,2026-008T,2026-06-01T04:39:24.235200,15.27599864,.00022195,43.0004,93.5836,46.8972,313.2065,0,U,67462,999,2234,.92882819E-3,.25401E-3,0
STARLINK-36505,2026-008U,2026-06-01T04:33:50.343264,15.27610602,.00009169,42.9995,93.5561,292.5373,67.5382,0,U,67463,999,2234,.97008479E-3,.26554E-3,0
STARLINK-36421,2026-008V,2026-06-01T05:42:04.813344,15.27603970,.0001962,43.0020,93.0597,279.4643,80.5986,0,U,67464,999,2235,.91688574E-3,.25073E-3,0
STARLINK-36437,2026-008W,2026-06-01T23:08:54.534912,15.27588978,.00017393,43.0001,89.0420,246.2069,113.8600,0,U,67465,999,2246,.12004985E-2,.3293E-3,0
STARLINK-36520,2026-008X,2026-06-01T22:37:39.832032,15.27594524,.00011271,42.9997,89.7470,193.3427,166.7395,0,U,67466,999,2245,.69895539E-3,.1903E-3,0
STARLINK-36425,2026-008Y,2026-06-01T22:28:23.159424,15.27619690,.00034958,43.0061,89.7086,234.6878,125.3647,0,U,67467,999,2245,.12341428E-2,.339E-3,0
STARLINK-36414,2026-008Z,2026-06-01T23:03:21.645216,15.27598658,.0001914,43.0022,89.0127,301.3163,58.7501,0,U,67468,999,2246,.9333577E-3,.25526E-3,0
STARLINK-36441,2026-008AA,2026-06-01T22:33:59.429088,15.27597021,.00015929,43.0032,89.7251,253.0013,107.0664,0,U,67469,999,2245,.10813733E-2,.2963E-3,0
STARLINK-36454,2026-008AB,2026-06-01T04:24:34.646976,15.27595177,.00014816,42.9997,93.4960,261.1148,98.9536,0,U,67470,999,2234,.1002353E-2,.27436E-3,0
STARLINK-36334,2026-008AC,2026-06-02T23:49:42.886272,15.27625470,.00012157,43.0033,83.8608,246.9176,113.1548,0,U,67471,999,2261,.96593214E-3,.2645E-3,0
STARLINK-36269,2026-008AD,2026-06-01T22:22:51.674592,15.27598079,.00009961,42.9974,89.6601,198.8231,161.2584,0,U,67472,999,2245,.85310076E-3,.23301E-3,0
STARLINK-36408,2026-008AE,2026-06-01T04:56:01.959072,15.27596433,.00018402,43.0036,93.6609,259.5906,100.4739,0,U,67473,999,2234,.81661497E-3,.22289E-3,0
ALSAT-3A,2026-009A,2026-06-03T11:10:56.066016,15.23358304,.0014253,97.4546,228.4293,156.5550,203.6340,0,U,67474,999,2118,.28464E-3,.6712E-4,0
TIANQI-37,2026-010A,2026-06-01T06:04:14.633760,13.99160327,.00133017,44.9804,152.6350,254.3981,105.5384,0,U,67476,999,1916,.43503551E-4,-.65E-6,0
TIANQI-38,2026-010B,2026-06-01T14:13:05.115648,13.99155378,.00120326,44.9765,150.9011,262.2643,97.6823,0,U,67477,999,1921,.5526844E-4,-.48E-6,0
TIANQI-39,2026-010C,2026-06-02T13:57:56.814048,14.03939779,.0016272,44.9802,143.4718,271.3441,88.5529,0,U,67478,999,1939,.47004E-4,-.55E-6,0
TIANQI-40,2026-010D,2026-06-01T09:55:51.240000,13.99143039,.00120162,44.9811,152.1153,267.2414,92.7043,0,U,67479,999,1918,.54209664E-4,-.49E-6,0
SZ-20 MODULE,2025-082C,2026-06-01T22:14:40.943328,15.68263545,.00128311,41.4785,50.2555,247.6087,112.3395,0,U,67481,999,29083,.25386913E-3,.29158E-3,0
2025-313BE,2025-313BE,2026-06-03T03:43:59.616768,15.46314286,.00024021,97.3900,231.3751,43.0281,317.1156,0,U,67482,999,2110,.31418004E-2,.157776E-2,0
ION SCV-021,2025-276DT,2026-06-03T03:31:25.133952,14.97514077,.00119478,97.5255,225.1117,160.1249,200.0442,0,U,67483,999,2050,.18274479E-3,.2077E-4,0
STARLINK-36551,2026-012A,2026-06-01T11:44:52.249632,15.27613384,.00012947,42.9980,201.5237,287.5056,72.5654,0,U,67493,999,2057,.10718616E-2,.29381E-3,0
STARLINK-36396,2026-012B,2026-06-01T11:17:06.919872,15.27594211,.00020302,43.0018,201.4010,281.0579,79.0044,0,U,67494,999,2057,.6325886E-3,.17194E-3,0
STARLINK-36550,2026-012C,2026-06-01T03:42:59.239584,15.27611181,.00009055,42.9980,203.3172,204.8486,155.2322,0,U,67495,999,2052,.68679888E-3,.18703E-3,0
STARLINK-36534,2026-012D,2026-06-01T11:24:30.852576,15.27609752,.00024138,43.0005,201.4219,299.8940,60.1671,0,U,67496,999,2057,.83327992E-3,.2276E-3,0
STARLINK-36555,2026-012E,2026-06-01T05:11:35.424672,15.27595808,.00014,42.9975,202.9110,259.8659,100.2035,0,U,67497,999,2053,.74187353E-3,.20219E-3,0
STARLINK-36081,2026-012F,2026-06-01T11:18:58.302432,15.27604094,.00003169,42.9999,201.3955,2.3377,357.7476,0,U,67498,999,2057,.94365903E-3,.25815E-3,0
