STARLINK-36528          
1 67458U 26008P   26152.23371741  .00027787  00000+0  10159-2 0  9998
2 67458  43.0031  93.0173 0001318 274.4678  85.6023 15.27566273 22357
STARLINK-36546          
1 67459U 26008Q   26154.12236218  .00025119  00000+0  91926-3 0  9997
2 67459  43.0042  83.1269 0002233 329.2066  30.8654 15.27578032 22632
STARLINK-36523          
1 67460U 26008R   26152.21973751  .00019022  00000+0  69847-3 0  9990
2 67460  43.0023  93.7879 0000952 268.1459  91.9283 15.27604377 22346
STARLINK-36522          
1 67461U 26008S   26152.19787411  .00030433  00000+0  11103-2 0  9994
2 67461  43.0027  93.6226 0001678 271.1793  88.8866 15.27595867 22342
STARLINK-36504          
1 67462U 26008T   26152.19403050  .00025401  00000+0  92883-3 0  9993
2 67462  43.0004  93.5836 0002219  46.8972 313.2065 15.27599864 22349
STARLINK-36505          
1 67463U 26008U   26152.19016601  .00026554  00000+0  97008-3 0  9990
2 67463  42.9995  93.5561 0000916 292.5373  67.5382 15.27610602 22344
STARLINK-36421          
1 67464U 26008V   26152.23755571  .00025073  00000+0  91689-3 0  9996
2 67464  43.0020  93.0597 0001962 279.4643  80.5986 15.27603970 22352
STARLINK-36437          
1 67465U 26008W   26152.96452008  .00032930  00000+0  12005-2 0  9990
2 67465  43.0001  89.0420 0001739 246.2069 113.8600 15.27588978 22463
STARLINK-36520          
1 67466U 26008X   26152.94282213  .00019030  00000+0  69896-3 0  9995
2 67466  42.9997  89.7470 0001127 193.3427 166.7395 15.27594524 22450
STARLINK-36425          
1 67467U 26008Y   26152.93637916  .00033900  00000+0  12341-2 0  9993
2 67467  43.0061  89.7086 0003495 234.6878 125.3647 15.27619690 22450
STARLINK-36414          
1 67468U 26008Z   26152.96066719  .00025526  00000+0  93336-3 0  9993
2 67468  43.0022  89.0127 0001914 301.3163  58.7501 15.27598658 22469
STARLINK-36441          
1 67469U 26008AA  26152.94027117  .00029630  00000+0  10814-2 0  9990
2 67469  43.0032  89.7251 0001592 253.0013 107.0664 15.27597021 22455
STARLINK-36454          
1 67470U 26008AB  26152.18373434  .00027436  00000+0  10024-2 0  9999
2 67470  42.9997  93.4960 0001481 261.1148  98.9536 15.27595177 22344
STARLINK-36334          
1 67471U 26008AC  26153.99285748  .00026450  00000+0  96593-3 0  9991
2 67471  43.0033  83.8608 0001215 246.9176 113.1548 15.27625470 22610
STARLINK-36269          
1 67472U 26008AD  26152.93254253  .00023301  00000+0  85310-3 0  9999
2 67472  42.9974  89.6601 0000996 198.8231 161.2584 15.27598079 22452
STARLINK-36408          
1 67473U 26008AE  26152.20557823  .00022289  00000+0  81661-3 0  9998
2 67473  43.0036  93.6609 0001840 259.5906 100.4739 15.27596433 22347
ALSAT-3A                
1 67474U 26009A   26154.46592669  .00006712  00000+0  28464-3 0  9992
2 67474  97.4546 228.4293 0014253 156.5550 203.6340 15.23358304 21181
TIANQI-37               
1 67476U 26010A   26152.25294715 -.00000065  00000+0  43504-4 0  9991
2 67476  44.9804 152.6350 0013301 254.3981 105.5384 13.99160327 19167
TIANQI-38               
1 67477U 26010B   26152.59242032 -.00000048  00000+0  55268-4 0  9995
2 67477  44.9765 150.9011 0012032 262.2643  97.6823 13.99155378 19217
TIANQI-39               
1 67478U 26010C   26153.58190757 -.00000055  00000+0  47004-4 0  9999
2 67478  44.9802 143.4718 0016272 271.3441  88.5529 14.03939779 19390
TIANQI-40               
1 67479U 26010D   26152.41378750 -.00000049  00000+0  54210-4 0  9992
2 67479  44.9811 152.1153 0012016 267.2414  92.7043 13.99143039 19182
SZ-20 MODULE            
1 67481U 25082C   26152.92686277  .00029158  00000+0  25387-3 0  9998
2 67481  41.4785  50.2555 0012831 247.6087 112.3395 15.68263545290839
2025-313BE              
1 67482U 25313BE  26154.15555112  .00157776  00000+0  31418-2 0  9995
2 67482  97.3900 231.3751 0002402  43.0281 317.1156 15.46314286 21103
ION SCV-021             
1 67483U 25276DT  26154.14681868  .00002077  00000+0  18274-3 0  9990
2 67483  97.5255 225.1117 0011947 160.1249 200.0442 14.97514077 20501
STARLINK-36551          
1 67493U 26012A   26152.48949363  .00029381  00000+0  10719-2 0  9994
2 67493  42.9980 201.5237 0001294 287.5056  72.5654 15.27613384 20575
STARLINK-36396          
1 67494U 26012B   26152.47021898  .00017194  00000+0  63259-3 0  9995
2 67494  43.0018 201.4010 0002030 281.0579  79.0044 15.27594211 20578
STARLINK-36550          
1 67495U 26012C   26152.15485231  .00018703  00000+0  68680-3 0  9996
2 67495  42.9980 203.3172 0000905 204.8486 155.2322 15.27611181 20521
STARLINK-36534          
1 67496U 26012D   26152.47535709  .00022760  00000+0  83328-3 0  9992
2 67496  43.0005 201.4219 0002413 299.8940  60.1671 15.27609752 20575
STARLINK-36555          
1 67497U 26012E   26152.21638223  .00020219  00000+0  74187-3 0  9990
2 67497  42.9975 202.9110 0001400 259.8659 100.2035 15.27595808 20536
STARLINK-36081          
1 67498U 26012F   26152.47150813  .00025815  00000+0  94366-3 0  9991
2 67498  42.9999 201.3955 0000316   2.3377 357.7476 15.27604094 20576
